[{"OBJECT_NAME":"STARLINK-1871","OBJECT_ID":"2020-088AM","EPOCH":"2026-03-09T21:52:37.049088","MEAN_MOTION":15.30175078,"ECCENTRICITY":0.00012586,"INCLINATION":53.1581,"RA_OF_ASC_NODE":295.3388,"ARG_OF_PERICENTER":90.0554,"MEAN_ANOMALY":270.0591,"EPHEMERIS_TYPE":0,"CLASSIFICATION_TYPE":"U","NORAD_CAT_ID":47157,"ELEMENT_SET_NO":999,"REV_AT_EPOCH":29195,"BSTAR":0.00029095563,"MEAN_MOTION_DOT":8.261e-5,"MEAN_MOTION_DDOT":0},{"OBJECT_NAME":"OBJECT D","OBJECT_ID":"2021-102D","EPOCH":"2026-03-09T14:47:14.426880","MEAN_MOTION":15.2846442,"ECCENTRICITY":0.0009157,"INCLINATION":97.3342,"RA_OF_ASC_NODE":112.2633,"ARG_OF_PERICENTER":187.6206,"MEAN_ANOMALY":172.4897,"EPHEMERIS_TYPE":0,"CLASSIFICATION_TYPE":"U","NORAD_CAT_ID":49398,"ELEMENT_SET_NO":999,"REV_AT_EPOCH":23880,"BSTAR":0.00046011,"MEAN_MOTION_DOT":0.00012697,"MEAN_MOTION_DDOT":0}]
